{
  "type": "Feature",
  "properties": {
    "BASIN_ID": 19384,
    "Shape_Leng": 16440.0,
    "Shape_Area": 7626000.0,
    "Segment_ID": 19384,
    "Acc_Cl": 1.0,
    "Perim_Buff": 10,
    "InsidePeri": 100,
    "OutsidePer": 0,
    "Fire_ID": "thm2017",
    "Fire_Segme": "thm2017_19384",
    "L_X1": 0.683425,
    "L_X2": 0.542329,
    "L_X3": 0.139364,
    "V_X1": 30.6731,
    "V_X2": 1.87484,
    "Shape_Le_1": 14.142135625,
    "R": 6.0,
    "V_X3": 4.89897948557,
    "X": 0.816713016,
    "ExpX": 2.26304899301,
    "P": 0.693538159512,
    "PCl": 4,
    "PCl_Legend": "60-80%",
    "LnV": 10.7930488394,
    "Volume": 48681.2312432,
    "VolMin": 6081.75654931,
    "VolMax": 389667.402196,
    "VolCl": 3,
    "VolCl_Lege": "10,000-100,000",
    "CombHaz": 7,
    "CombHazCl": 3,
    "CombHazCl_": "High"
  },
  "geometry": {
    "type": "Polygon",
    "coordinates": [
      [
        [
          -119.62345523727613,
          34.45201922136821
        ],
        [
          -119.6234580562653,
          34.45210930909794
        ],
        [
          -119.62356680819634,
          34.4521069738554
        ],
        [
          -119.62356962731457,
          34.45219706157578
        ],
        [
          -119.62367837934961,
          34.45219472622882
        ],
        [
          -119.6236811985969,
          34.45228481393983
        ],
        [
          -119.62378995073597,
          34.45228247848844
        ],
        [
          -119.62379277011227,
          34.4523725661901
        ],
        [
          -119.62390152235537,
          34.45237023063429
        ],
        [
          -119.62390434186074,
          34.45246031832658
        ],
        [
          -119.62401309420781,
          34.452457982666346
        ],
        [
          -119.62401591384223,
          34.4525480703493
        ],
        [
          -119.62412466629334,
          34.452545734584646
        ],
        [
          -119.62413030583281,
          34.45272590993028
        ],
        [
          -119.62423905850449,
          34.452723574053365
        ],
        [
          -119.62424187840952,
          34.45281366171604
        ],
        [
          -119.62435063118518,
          34.45281132573471
        ],
        [
          -119.62435345121929,
          34.452901413388034
        ],
        [
          -119.62446220409899,
          34.45289907730226
        ],
        [
          -119.62446502426215,
          34.45298916494623
        ],
        [
          -119.62457377724584,
          34.45298682875603
        ],
        [
          -119.62457659753805,
          34.45307691639064
        ],
        [
          -119.62468535062578,
          34.45307458009602
        ],
        [
          -119.62468817104705,
          34.453164667721275
        ],
        [
          -119.62479692423878,
          34.45316233132221
        ],
        [
          -119.6247997447891,
          34.45325241893809
        ],
        [
          -119.62490849808485,
          34.45325008243461
        ],
        [
          -119.62491413945615,
          34.45343025764614
        ],
        [
          -119.6251316464762,
          34.45342558431805
        ],
        [
          -119.62513446741372,
          34.45351567190585
        ],
        [
          -119.62567823532743,
          34.453503986855935
        ],
        [
          -119.62568105686013,
          34.45359407440305
        ],
        [
          -119.62589856417101,
          34.4535893996912
        ],
        [
          -119.62590138594936,
          34.45367948722108
        ],
        [
          -119.62655390828057,
          34.4536654607201
        ],
        [
          -119.62655673077064,
          34.45375554820148
        ],
        [
          -119.62699174587368,
          34.453746195237436
        ],
        [
          -119.62699456884248,
          34.453836282685955
        ],
        [
          -119.62742958421116,
          34.45382692814493
        ],
        [
          -119.62743240765863,
          34.453917015560556
        ],
        [
          -119.62764991550084,
          34.45391233769475
        ],
        [
          -119.62765273919392,
          34.454002425093165
        ],
        [
          -119.62819650916273,
          34.45399072869891
        ],
        [
          -119.62819933345108,
          34.454080816056624
        ],
        [
          -119.62896061169661,
          34.45406443699247
        ],
        [
          -119.62895778659254,
          34.45397434968965
        ],
        [
          -119.62917529431675,
          34.45396966910328
        ],
        [
          -119.62917811965391,
          34.45405975639042
        ],
        [
          -119.62928687361376,
          34.45405741594449
        ],
        [
          -119.62928969908002,
          34.454147503222245
        ],
        [
          -119.62939845314384,
          34.45414516267188
        ],
        [
          -119.6294012787392,
          34.454235249940254
        ],
        [
          -119.62951003290699,
          34.45423290928545
        ],
        [
          -119.62952416165459,
          34.45468334556516
        ],
        [
          -119.6296329163926,
          34.454681004774514
        ],
        [
          -119.62965269798187,
          34.4553116154468
        ],
        [
          -119.62976145352314,
          34.45530927450466
        ],
        [
          -119.6297642796312,
          34.45539936172957
        ],
        [
          -119.62987303527647,
          34.455397020682966
        ],
        [
          -119.62987586151363,
          34.45548710789851
        ],
        [
          -119.62998461726286,
          34.45548476674745
        ],
        [
          -119.62998744362912,
          34.455574853953564
        ],
        [
          -119.6302049553231,
          34.45557017134594
        ],
        [
          -119.63020778193498,
          34.455660258534905
        ],
        [
          -119.6305340497315,
          34.455653233875374
        ],
        [
          -119.63053687670556,
          34.45574332103924
        ],
        [
          -119.63064563272918,
          34.455740979285004
        ],
        [
          -119.63064845983239,
          34.45583106643949
        ],
        [
          -119.63075721596,
          34.4558287245808
        ],
        [
          -119.63079114357579,
          34.456909770220896
        ],
        [
          -119.63068238604956,
          34.456912112173754
        ],
        [
          -119.6306880405948,
          34.45709228644133
        ],
        [
          -119.63079679835417,
          34.45708994447278
        ],
        [
          -119.63080245318271,
          34.45727011871853
        ],
        [
          -119.63091121116265,
          34.45726777663767
        ],
        [
          -119.63091969384931,
          34.4575380379712
        ],
        [
          -119.63102845216636,
          34.457535695770176
        ],
        [
          -119.63103693531568,
          34.457805957066434
        ],
        [
          -119.63092817664894,
          34.457808299290996
        ],
        [
          -119.63095645346364,
          34.45870917025722
        ],
        [
          -119.63084769361873,
          34.458711512463644
        ],
        [
          -119.63085900422983,
          34.45907186083857
        ],
        [
          -119.6307502439061,
          34.459074202979764
        ],
        [
          -119.63075307147369,
          34.45916429007752
        ],
        [
          -119.63064431102083,
          34.45916663212992
        ],
        [
          -119.6306471384844,
          34.459256719233984
        ],
        [
          -119.63053837790244,
          34.45925906119763
        ],
        [
          -119.63054403263412,
          34.45943923541686
        ],
        [
          -119.63043527180645,
          34.459441577299586
        ],
        [
          -119.63043809907452,
          34.45953166441472
        ],
        [
          -119.63032933811773,
          34.45953400620866
        ],
        [
          -119.63033499245844,
          34.45971418045003
        ],
        [
          -119.63044375364835,
          34.459711838640395
        ],
        [
          -119.63044658095411,
          34.45980192575095
        ],
        [
          -119.63055534224806,
          34.459799583836855
        ],
        [
          -119.63055816968293,
          34.45988967093803
        ],
        [
          -119.6306669310809,
          34.45988732891946
        ],
        [
          -119.6306697586449,
          34.45997741601124
        ],
        [
          -119.63077852014688,
          34.4599750738882
        ],
        [
          -119.63078134784001,
          34.46006516097061
        ],
        [
          -119.6309988710395,
          34.46006047641896
        ],
        [
          -119.63100169897832,
          34.46015056348414
        ],
        [
          -119.63111046067579,
          34.46014822105553
        ],
        [
          -119.63111328874375,
          34.46023830811132
        ],
        [
          -119.63122205054523,
          34.46023596557825
        ],
        [
          -119.63122487874232,
          34.46032605262466
        ],
        [
          -119.63133364064782,
          34.4603237099871
        ],
        [
          -119.63133646897404,
          34.460413797024145
        ],
        [
          -119.63144523098359,
          34.4604114542821
        ],
        [
          -119.63144805943891,
          34.460501541309775
        ],
        [
          -119.63155682155245,
          34.46049919846327
        ],
        [
          -119.63155965013692,
          34.46058928548153
        ],
        [
          -119.6316684123545,
          34.46058694253055
        ],
        [
          -119.63167124106812,
          34.46067702953943
        ],
        [
          -119.63178000338971,
          34.460674686483976
        ],
        [
          -119.63178283223245,
          34.46076477348348
        ],
        [
          -119.63189159465807,
          34.46076243032354
        ],
        [
          -119.63189442362996,
          34.460852517313654
        ],
        [
          -119.6320031861596,
          34.460850174049256
        ],
        [
          -119.63200601526059,
          34.46094026102998
        ],
        [
          -119.63211477789426,
          34.46093791766109
        ],
        [
          -119.63211760712441,
          34.46102800463244
        ],
        [
          -119.63222636986208,
          34.46102566115908
        ],
        [
          -119.63222919922137,
          34.461115748121024
        ],
        [
          -119.63233796206308,
          34.46111340454317
        ],
        [
          -119.6323407915515,
          34.46120349149575
        ],
        [
          -119.63244955449721,
          34.461201147813426
        ],
        [
          -119.63246653239106,
          34.461741669449516
        ],
        [
          -119.63235776874586,
          34.461744013178965
        ],
        [
          -119.63237191675329,
          34.46219444787282
        ],
        [
          -119.63248068098142,
          34.4621921041041
        ],
        [
          -119.63248634050548,
          34.462372277955204
        ],
        [
          -119.6325951049542,
          34.46236993407416
        ],
        [
          -119.63260076476169,
          34.46255010790343
        ],
        [
          -119.63270952943103,
          34.46254776391005
        ],
        [
          -119.63271801958624,
          34.46281802461886
        ],
        [
          -119.63282678459278,
          34.46281568050528
        ],
        [
          -119.63283244499226,
          34.4629958542878
        ],
        [
          -119.63294121021939,
          34.46299351006188
        ],
        [
          -119.63295253163547,
          34.463353857577076
        ],
        [
          -119.63306129731644,
          34.46335151322311
        ],
        [
          -119.63308111109451,
          34.463982121260585
        ],
        [
          -119.63318987757906,
          34.463979776755
        ],
        [
          -119.63319836973649,
          34.464250037295926
        ],
        [
          -119.63308960290217,
          34.46425238182508
        ],
        [
          -119.6330952641701,
          34.46443255552707
        ],
        [
          -119.63298649709,
          34.46443489997528
        ],
        [
          -119.6330063111074,
          34.46506550793894
        ],
        [
          -119.63289754319858,
          34.465067852345484
        ],
        [
          -119.63290037370615,
          34.46515793919915
        ],
        [
          -119.63279160566812,
          34.46516028351693
        ],
        [
          -119.63279726648777,
          34.465340457235385
        ],
        [
          -119.63268849820398,
          34.46534280147222
        ],
        [
          -119.63269698917786,
          34.46561306206188
        ],
        [
          -119.63258822053169,
          34.46561540622564
        ],
        [
          -119.63259105076486,
          34.46570549309368
        ],
        [
          -119.63248228198951,
          34.465707837168644
        ],
        [
          -119.6324964327607,
          34.46615827152499
        ],
        [
          -119.63238766338978,
          34.46616061554258
        ],
        [
          -119.63240464403016,
          34.46670113676673
        ],
        [
          -119.63229587394702,
          34.466703480734786
        ],
        [
          -119.63230153402776,
          34.466883654479595
        ],
        [
          -119.63219276369881,
          34.466885998366706
        ],
        [
          -119.63220408354462,
          34.46724634586933
        ],
        [
          -119.63231285434003,
          34.4672440019508
        ],
        [
          -119.6323156844495,
          34.46733408881479
        ],
        [
          -119.63242445534895,
          34.467331744791764
        ],
        [
          -119.63242728558762,
          34.467421831646355
        ],
        [
          -119.63253605659112,
          34.467419487518825
        ],
        [
          -119.63254171733936,
          34.467599661207615
        ],
        [
          -119.63265048856354,
          34.467597316967726
        ],
        [
          -119.63265614959526,
          34.46777749063476
        ],
        [
          -119.63276492104009,
          34.46777514628252
        ],
        [
          -119.63277341303179,
          34.46804540674797
        ],
        [
          -119.6328821848139,
          34.4680430622755
        ],
        [
          -119.6328935081119,
          34.46840340950986
        ],
        [
          -119.63300228034795,
          34.46840106490934
        ],
        [
          -119.6330136043135,
          34.46876141208776
        ],
        [
          -119.63312237700343,
          34.468759067359144
        ],
        [
          -119.63312520814286,
          34.46884915414206
        ],
        [
          -119.63323398093688,
          34.46884680930895
        ],
        [
          -119.63323681220548,
          34.468936896082475
        ],
        [
          -119.633563130862,
          34.46892986097964
        ],
        [
          -119.63356596249307,
          34.46901994772805
        ],
        [
          -119.63389228138631,
          34.46901291173176
        ],
        [
          -119.63389511337982,
          34.46910299845507
        ],
        [
          -119.63400388643572,
          34.4691006529218
        ],
        [
          -119.6340067185584,
          34.469190739635714
        ],
        [
          -119.63422426486572,
          34.469186048263495
        ],
        [
          -119.63422709723424,
          34.46927613496016
        ],
        [
          -119.63444464372452,
          34.46927144318559
        ],
        [
          -119.63444747633886,
          34.469361529865026
        ],
        [
          -119.63455624968178,
          34.469359183824906
        ],
        [
          -119.63455908242533,
          34.46944927049493
        ],
        [
          -119.63477662930666,
          34.469444578108984
        ],
        [
          -119.63477946229602,
          34.4695346647617
        ],
        [
          -119.63488823583444,
          34.46953231841588
        ],
        [
          -119.63489106895304,
          34.46962240505929
        ],
        [
          -119.6349998425955,
          34.469620058608946
        ],
        [
          -119.63500267584331,
          34.46971014524292
        ],
        [
          -119.63511144958981,
          34.46970779868807
        ],
        [
          -119.63511428296684,
          34.469797885312644
        ],
        [
          -119.63522305681741,
          34.46979553865328
        ],
        [
          -119.63522872384236,
          34.46997571188212
        ],
        [
          -119.63533749791362,
          34.46997336511036
        ],
        [
          -119.63534033156161,
          34.47006345171462
        ],
        [
          -119.63544910573691,
          34.47006110483834
        ],
        [
          -119.63545477330389,
          34.470241278026535
        ],
        [
          -119.63556354769983,
          34.47023893103788
        ],
        [
          -119.63556638161884,
          34.4703290176218
        ],
        [
          -119.6356751561189,
          34.47032667052863
        ],
        [
          -119.63567799016707,
          34.470416757103145
        ],
        [
          -119.63633063760285,
          34.47040267246702
        ],
        [
          -119.63633347236343,
          34.470492758992854
        ],
        [
          -119.63655102164127,
          34.47048806332514
        ],
        [
          -119.6365538566477,
          34.470578149833685
        ],
        [
          -119.63677140610845,
          34.4705734537636
        ],
        [
          -119.6367742413607,
          34.470663540254876
        ],
        [
          -119.63688301618885,
          34.47066119206697
        ],
        [
          -119.63688585157033,
          34.470751278548846
        ],
        [
          -119.63699462650254,
          34.47074893025643
        ],
        [
          -119.63699746201323,
          34.47083901672891
        ],
        [
          -119.63732378708417,
          34.47083197124805
        ],
        [
          -119.63732662295736,
          34.47092205769538
        ],
        [
          -119.63743539807247,
          34.470919709000576
        ],
        [
          -119.63743823407489,
          34.47100979543852
        ],
        [
          -119.63754700929402,
          34.47100744663917
        ],
        [
          -119.63754984542567,
          34.47109753306772
        ],
        [
          -119.63776739605944,
          34.47109283516331
        ],
        [
          -119.63777023243695,
          34.471182921574574
        ],
        [
          -119.6378790078516,
          34.47118057246951
        ],
        [
          -119.63788184435832,
          34.471270658871376
        ],
        [
          -119.63799061987699,
          34.47126830966178
        ],
        [
          -119.63799345651292,
          34.47135839605425
        ],
        [
          -119.63810223213565,
          34.47135604674011
        ],
        [
          -119.63810506890084,
          34.471446133123166
        ],
        [
          -119.63821384462761,
          34.4714437837045
        ],
        [
          -119.63821668152204,
          34.47153387007809
        ],
        [
          -119.63832545735283,
          34.47153152055489
        ],
        [
          -119.63832829437648,
          34.47162160691915
        ],
        [
          -119.63843707031134,
          34.471619257291415
        ],
        [
          -119.6384399074642,
          34.47170934364624
        ],
        [
          -119.63876623554312,
          34.471702294159456
        ],
        [
          -119.63876907305851,
          34.47179238048914
        ],
        [
          -119.63887784917627,
          34.47179003045901
        ],
        [
          -119.63898662528143,
          34.47178768033222
        ],
        [
          -119.63900081421369,
          34.472238111878866
        ],
        [
          -119.63889203752534,
          34.47224046204502
        ],
        [
          -119.63891757734727,
          34.473051238803144
        ],
        [
          -119.63880879959655,
          34.47305358894349
        ],
        [
          -119.63881731274735,
          34.47332384785886
        ],
        [
          -119.63870853463406,
          34.473326197926156
        ],
        [
          -119.63872839827697,
          34.47395680206331
        ],
        [
          -119.63861961933455,
          34.473959152089044
        ],
        [
          -119.63862529454117,
          34.474139324701596
        ],
        [
          -119.63873407371688,
          34.47413697466013
        ],
        [
          -119.6387397492072,
          34.474317147250794
        ],
        [
          -119.63884852860362,
          34.4743147970969
        ],
        [
          -119.63887123200197,
          34.47503548733521
        ],
        [
          -119.63876245167233,
          34.47503783755208
        ],
        [
          -119.63876812741458,
          34.47521801011205
        ],
        [
          -119.638659346839,
          34.47522036024799
        ],
        [
          -119.63866502239833,
          34.475400532817574
        ],
        [
          -119.63855624157685,
          34.47540288287258
        ],
        [
          -119.63855907925875,
          34.475492969162886
        ],
        [
          -119.638450298308,
          34.47549531912908
        ],
        [
          -119.63845313588587,
          34.47558540542579
        ],
        [
          -119.63834435480587,
          34.47558775530319
        ],
        [
          -119.63834719227964,
          34.47567784160621
        ],
        [
          -119.63823841107038,
          34.47568019139481
        ],
        [
          -119.6382412484401,
          34.475770277704164
        ],
        [
          -119.6380236857505,
          34.47577497700705
        ],
        [
          -119.6380265228995,
          34.47586506333061
        ],
        [
          -119.63791774141912,
          34.475867412844906
        ],
        [
          -119.63792341552156,
          34.47604758550319
        ],
        [
          -119.63781463379529,
          34.47604993493653
        ],
        [
          -119.63781747074871,
          34.47614002127124
        ],
        [
          -119.6377086888932,
          34.47614237061578
        ],
        [
          -119.63771152574256,
          34.47623245695682
        ],
        [
          -119.63760274375777,
          34.47623480621257
        ],
        [
          -119.63760558050306,
          34.47632489255993
        ],
        [
          -119.63738801626236,
          34.4763295907971
        ],
        [
          -119.63739085278694,
          34.476419677158674
        ],
        [
          -119.63728207053104,
          34.47642202614009
        ],
        [
          -119.63728490695154,
          34.476512112508026
        ],
        [
          -119.63717612456637,
          34.47651446140063
        ],
        [
          -119.63717896088279,
          34.476604547774876
        ],
        [
          -119.63707017836836,
          34.47660689657868
        ],
        [
          -119.6370730145807,
          34.47669698295925
        ],
        [
          -119.63696423193703,
          34.47669933167424
        ],
        [
          -119.63697841260428,
          34.47714976359342
        ],
        [
          -119.63686962936467,
          34.47715211225106
        ],
        [
          -119.63693202547303,
          34.47913401241263
        ],
        [
          -119.63682323965398,
          34.47913636114666
        ],
        [
          -119.63683458458894,
          34.479496706582246
        ],
        [
          -119.63694337087472,
          34.47949435781675
        ],
        [
          -119.63694620725661,
          34.479584444163876
        ],
        [
          -119.63683742085418,
          34.47958679293725
        ],
        [
          -119.63686011142917,
          34.48030748372243
        ],
        [
          -119.63675132408062,
          34.48030983246204
        ],
        [
          -119.63675416034248,
          34.48039991881116
        ],
        [
          -119.63664537286465,
          34.48040226746195
        ],
        [
          -119.63664820902241,
          34.480492353817404
        ],
        [
          -119.63653942141532,
          34.480494702379346
        ],
        [
          -119.63654225746896,
          34.48058478874112
        ],
        [
          -119.63643346973257,
          34.48058713721424
        ],
        [
          -119.63645899373175,
          34.48139791447189
        ],
        [
          -119.63635020493255,
          34.481400262919124
        ],
        [
          -119.63635304087872,
          34.48149034928127
        ],
        [
          -119.63646182979463,
          34.48148800082619
        ],
        [
          -119.63647884643613,
          34.48202851891962
        ],
        [
          -119.63637005682006,
          34.482030867421905
        ],
        [
          -119.6363785649607,
          34.48230112647152
        ],
        [
          -119.63626977498197,
          34.48230347490069
        ],
        [
          -119.63627544690524,
          34.482483647608504
        ],
        [
          -119.63616665668052,
          34.48248599595671
        ],
        [
          -119.63618650799172,
          34.48311660044073
        ],
        [
          -119.63607771693748,
          34.48311894874729
        ],
        [
          -119.63608055277275,
          34.48320903510387
        ],
        [
          -119.63586297039308,
          34.4832137314426
        ],
        [
          -119.63586580600752,
          34.48330381781339
        ],
        [
          -119.63575701468208,
          34.48330616584556
        ],
        [
          -119.6357598501924,
          34.48339625222268
        ],
        [
          -119.6356510587377,
          34.48339860016602
        ],
        [
          -119.6356538941439,
          34.48348868654945
        ],
        [
          -119.63543631096327,
          34.48349338216173
        ],
        [
          -119.63543914614864,
          34.48358346855935
        ],
        [
          -119.63522156268426,
          34.483588163800526
        ],
        [
          -119.63521872773232,
          34.48349807738717
        ],
        [
          -119.63510993609796,
          34.483500424854824
        ],
        [
          -119.63510710127531,
          34.48341033843208
        ],
        [
          -119.63478072664684,
          34.483417380231224
        ],
        [
          -119.63477789218688,
          34.48332729378334
        ],
        [
          -119.63445151779533,
          34.483334334688536
        ],
        [
          -119.63445435190516,
          34.48342442116
        ],
        [
          -119.63434556029945,
          34.483426767942866
        ],
        [
          -119.63434839430518,
          34.48351685442064
        ],
        [
          -119.63423960257016,
          34.48351920111463
        ],
        [
          -119.63424243647174,
          34.48360928759875
        ],
        [
          -119.63413364460745,
          34.48361163420391
        ],
        [
          -119.6341364784049,
          34.48370172069428
        ],
        [
          -119.63402768641132,
          34.48370406721058
        ],
        [
          -119.63402485273055,
          34.48361398071234
        ],
        [
          -119.6334808931575,
          34.483625711803946
        ],
        [
          -119.6334837262547,
          34.48371579834147
        ],
        [
          -119.63337493418562,
          34.483718144277525
        ],
        [
          -119.6333777671787,
          34.483808230821445
        ],
        [
          -119.63326897498037,
          34.483810576668645
        ],
        [
          -119.6332718078693,
          34.48390066321889
        ],
        [
          -119.6331630155417,
          34.48390300897723
        ],
        [
          -119.63316584832651,
          34.483993095533776
        ],
        [
          -119.63305705586959,
          34.48399544120327
        ],
        [
          -119.63305988855026,
          34.48408552776613
        ],
        [
          -119.63295109596406,
          34.48408787334678
        ],
        [
          -119.6329567611297,
          34.48426804648364
        ],
        [
          -119.63273917545276,
          34.48427273738621
        ],
        [
          -119.63274200782102,
          34.48436282396804
        ],
        [
          -119.63241562886112,
          34.48436985962014
        ],
        [
          -119.63241846089183,
          34.484459946224014
        ],
        [
          -119.63209208146868,
          34.48446698102927
        ],
        [
          -119.63209491316181,
          34.484557067655174
        ],
        [
          -119.63155094662153,
          34.48456879043564
        ],
        [
          -119.63154811551198,
          34.48447870377048
        ],
        [
          -119.63143932228294,
          34.48448104802858
        ],
        [
          -119.63143649130264,
          34.484390961354045
        ],
        [
          -119.63089252555253,
          34.484402681154634
        ],
        [
          -119.63088969516836,
          34.4843125944393
        ],
        [
          -119.63056331591766,
          34.48431962513557
        ],
        [
          -119.63056614595165,
          34.48440971187445
        ],
        [
          -119.63045735272622,
          34.48441205525429
        ],
        [
          -119.63046018265608,
          34.48450214199949
        ],
        [
          -119.63035138930137,
          34.48450448529047
        ],
        [
          -119.63035421912707,
          34.48459457204199
        ],
        [
          -119.63013663214659,
          34.48459925834951
        ],
        [
          -119.63013946175141,
          34.4846893451152
        ],
        [
          -119.63003066812561,
          34.48469168813174
        ],
        [
          -119.6300334976263,
          34.484781774903716
        ],
        [
          -119.62981591010357,
          34.484786460662356
        ],
        [
          -119.62981873938338,
          34.48487654744851
        ],
        [
          -119.62970994548645,
          34.4848788901906
        ],
        [
          -119.6297127746621,
          34.48496897698307
        ],
        [
          -119.62938639254584,
          34.4849760046526
        ],
        [
          -119.6293892213839,
          34.48506609146706
        ],
        [
          -119.62917163301015,
          34.485070776112224
        ],
        [
          -119.62917446162731,
          34.48516086294083
        ],
        [
          -119.62841290110673,
          34.485177256207244
        ],
        [
          -119.62841007330658,
          34.48508716932373
        ],
        [
          -119.62819248470686,
          34.48509185222801
        ],
        [
          -119.6281896571527,
          34.485001765327276
        ],
        [
          -119.62764568601732,
          34.48501347085627
        ],
        [
          -119.62764285905929,
          34.48492338391479
        ],
        [
          -119.62742527075076,
          34.48492806543371
        ],
        [
          -119.62742244403871,
          34.484837978475014
        ],
        [
          -119.62731364998233,
          34.484840319081556
        ],
        [
          -119.62731082339957,
          34.48475023211349
        ],
        [
          -119.62709323548259,
          34.484754913020765
        ],
        [
          -119.6270904091458,
          34.48466482603547
        ],
        [
          -119.62687282141205,
          34.4846695065402
        ],
        [
          -119.62686999532126,
          34.48457941953771
        ],
        [
          -119.62654361397671,
          34.48458643954596
        ],
        [
          -119.62654078824859,
          34.48449635251842
        ],
        [
          -119.62643199455871,
          34.484498692319896
        ],
        [
          -119.62642916895986,
          34.484408605282994
        ],
        [
          -119.62632037537415,
          34.484410944979935
        ],
        [
          -119.62631754990456,
          34.48432085793365
        ],
        [
          -119.62620875642303,
          34.484323197526045
        ],
        [
          -119.6262059310827,
          34.484233110470385
        ],
        [
          -119.62609713770532,
          34.48423544995823
        ],
        [
          -119.62609431249425,
          34.48414536289321
        ],
        [
          -119.62544155266696,
          34.48415939774225
        ],
        [
          -119.62544437717774,
          34.484249484854274
        ],
        [
          -119.62522679023488,
          34.48425416237927
        ],
        [
          -119.62522396595755,
          34.484164075251584
        ],
        [
          -119.62467999896461,
          34.4841757673324
        ],
        [
          -119.62467717528335,
          34.48408568016403
        ],
        [
          -119.6245683819639,
          34.48408801828222
        ],
        [
          -119.62456555841187,
          34.48399793110447
        ],
        [
          -119.62445676519657,
          34.48400026911811
        ],
        [
          -119.62445394177384,
          34.48391018193099
        ],
        [
          -119.62434514866268,
          34.4839125198401
        ],
        [
          -119.62434232536917,
          34.48382243264368
        ],
        [
          -119.62412473934278,
          34.4838271081561
        ],
        [
          -119.62411909326019,
          34.48364693372722
        ],
        [
          -119.62401030046162,
          34.4836492713227
        ],
        [
          -119.6240046546626,
          34.48346909687203
        ],
        [
          -119.62389586208492,
          34.48347143435514
        ],
        [
          -119.6238930393209,
          34.48338134711968
        ],
        [
          -119.62367545436139,
          34.48338602178013
        ],
        [
          -119.62367263184332,
          34.48329593452747
        ],
        [
          -119.62345504706708,
          34.48330060878543
        ],
        [
          -119.62344940253539,
          34.483120434244206
        ],
        [
          -119.62334061036192,
          34.483122771212464
        ],
        [
          -119.62333778823158,
          34.48303268393173
        ],
        [
          -119.62322899616225,
          34.48303502079544
        ],
        [
          -119.62322617416116,
          34.48294493350535
        ],
        [
          -119.62311738219601,
          34.48294727026454
        ],
        [
          -119.62311456032415,
          34.48285718296508
        ],
        [
          -119.62300576846319,
          34.48285951961973
        ],
        [
          -119.62300012499045,
          34.482679345000555
        ],
        [
          -119.6227825416978,
          34.48268401798842
        ],
        [
          -119.62277972021364,
          34.482593930660876
        ],
        [
          -119.6225621371043,
          34.48259860324627
        ],
        [
          -119.62255931586606,
          34.48250851590155
        ],
        [
          -119.62234173294006,
          34.482513188084454
        ],
        [
          -119.62233891194775,
          34.48242310072257
        ],
        [
          -119.62168616356935,
          34.482437114903384
        ],
        [
          -119.62168334328982,
          34.48234702749299
        ],
        [
          -119.62157455196632,
          34.48234936284351
        ],
        [
          -119.62157173181598,
          34.48225927542378
        ],
        [
          -119.6213541493648,
          34.48226394581902
        ],
        [
          -119.62135132946041,
          34.482173858382126
        ],
        [
          -119.62037220886087,
          34.48219487030339
        ],
        [
          -119.62036939001936,
          34.48210478279456
        ],
        [
          -119.61982543427625,
          34.482116452660335
        ],
        [
          -119.61982261603077,
          34.4820263651109
        ],
        [
          -119.61971382496131,
          34.48202869878613
        ],
        [
          -119.6197166430901,
          34.48211878634337
        ],
        [
          -119.61939026945656,
          34.48212578681224
        ],
        [
          -119.61939308724773,
          34.48221587439143
        ],
        [
          -119.61928429589484,
          34.48221820769544
        ],
        [
          -119.61928147822036,
          34.48212812010845
        ],
        [
          -119.61873752185178,
          34.482139785138905
        ],
        [
          -119.61873470477333,
          34.48204969751132
        ],
        [
          -119.61851712237177,
          34.48205436283093
        ],
        [
          -119.61851430553924,
          34.481964275186215
        ],
        [
          -119.61829672332105,
          34.48196894010337
        ],
        [
          -119.61829390673445,
          34.48187885244147
        ],
        [
          -119.61818511572328,
          34.48188118474717
        ],
        [
          -119.61817948282096,
          34.48170100940311
        ],
        [
          -119.61807069203073,
          34.4817033415965
        ],
        [
          -119.61806787571503,
          34.48161325391437
        ],
        [
          -119.61795908502899,
          34.48161558600323
        ],
        [
          -119.61795626884249,
          34.48152549831176
        ],
        [
          -119.61784747826064,
          34.4815278302961
        ],
        [
          -119.61784466220335,
          34.48143774259528
        ],
        [
          -119.6177358717257,
          34.481440074475124
        ],
        [
          -119.61773305579763,
          34.481349986764975
        ],
        [
          -119.6169715229211,
          34.48136630716136
        ],
        [
          -119.61696870782241,
          34.48127621939503
        ],
        [
          -119.61675112712147,
          34.48128088147947
        ],
        [
          -119.6167454974284,
          34.48110070591093
        ],
        [
          -119.61663670729259,
          34.48110303679248
        ],
        [
          -119.61663389258149,
          34.481012948998114
        ],
        [
          -119.61652510254984,
          34.48101527977514
        ],
        [
          -119.61652228796795,
          34.48092519197144
        ],
        [
          -119.61641349804054,
          34.48092752264397
        ],
        [
          -119.61640786914764,
          34.48074734701631
        ],
        [
          -119.61629907944116,
          34.480749677576526
        ],
        [
          -119.61629626513012,
          34.48065958975261
        ],
        [
          -119.61607868591302,
          34.480664250567315
        ],
        [
          -119.61607587184791,
          34.48057416272626
        ],
        [
          -119.6159670823373,
          34.48057649298076
        ],
        [
          -119.61596426840137,
          34.48048640513035
        ],
        [
          -119.61585547899499,
          34.480488735280346
        ],
        [
          -119.61585266518823,
          34.4803986474206
        ],
        [
          -119.61552629724422,
          34.480405637266955
        ],
        [
          -119.61552348380005,
          34.48031554938227
        ],
        [
          -119.61465316966678,
          34.48033418465526
        ],
        [
          -119.61465035716866,
          34.48024409670662
        ],
        [
          -119.61454156796249,
          34.48024642567278
        ],
        [
          -119.61453875559356,
          34.48015633771482
        ],
        [
          -119.61442996649161,
          34.48015866657648
        ],
        [
          -119.61442434202459,
          34.479978490640384
        ],
        [
          -119.61431555314356,
          34.479980819389745
        ],
        [
          -119.61430992895986,
          34.479800643431886
        ],
        [
          -119.6142011402997,
          34.47980297206895
        ],
        [
          -119.61417864499776,
          34.479082268113814
        ],
        [
          -119.61406985725867,
          34.47908459659179
        ],
        [
          -119.6140670455188,
          34.47899450858271
        ],
        [
          -119.6136318949044,
          34.479003821496406
        ],
        [
          -119.61362908364374,
          34.47891373345458
        ],
        [
          -119.61330272090194,
          34.47892071710115
        ],
        [
          -119.61329991000385,
          34.47883062903441
        ],
        [
          -119.61297354749983,
          34.47883761178733
        ],
        [
          -119.61297635804786,
          34.478927699877445
        ],
        [
          -119.61264999508153,
          34.47893468178347
        ],
        [
          -119.61264437469805,
          34.47875450555491
        ],
        [
          -119.61253558725102,
          34.478756832647946
        ],
        [
          -119.61252996715082,
          34.478576656397685
        ],
        [
          -119.61242117992468,
          34.478578983378426
        ],
        [
          -119.61241837000999,
          34.478488895243196
        ],
        [
          -119.61078656187175,
          34.47852378823392
        ],
        [
          -119.61078937003612,
          34.47861387648603
        ],
        [
          -119.61068058261047,
          34.478616201919635
        ],
        [
          -119.61065250269442,
          34.47771531925183
        ],
        [
          -119.61054371642315,
          34.47771764451085
        ],
        [
          -119.61053248527247,
          34.477357291369685
        ],
        [
          -119.61020612778407,
          34.47736426647313
        ],
        [
          -119.61020332037761,
          34.47727417816065
        ],
        [
          -119.60944181995193,
          34.47729044996329
        ],
        [
          -119.60944462654162,
          34.47738053833028
        ],
        [
          -119.60911826867938,
          34.47738751053296
        ],
        [
          -119.60912107493151,
          34.47747759892178
        ],
        [
          -119.60901228883581,
          34.47747992280374
        ],
        [
          -119.60901509498372,
          34.47757001119881
        ],
        [
          -119.6089063087589,
          34.47757233499186
        ],
        [
          -119.60890911480259,
          34.47766242339317
        ],
        [
          -119.60880032844861,
          34.47766474709733
        ],
        [
          -119.60879752252164,
          34.47757465868822
        ],
        [
          -119.60857995000971,
          34.47757930579086
        ],
        [
          -119.60857714432858,
          34.47748921736466
        ],
        [
          -119.60825078581732,
          34.477496187270084
        ],
        [
          -119.60824798049866,
          34.477406098819
        ],
        [
          -119.60803040832893,
          34.47741074492358
        ],
        [
          -119.60802760325609,
          34.47732065645541
        ],
        [
          -119.60693974282717,
          34.477343881098996
        ],
        [
          -119.6069369389336,
          34.47725379255149
        ],
        [
          -119.60671936693181,
          34.477258436304346
        ],
        [
          -119.60671656328402,
          34.477168347739756
        ],
        [
          -119.60639020553805,
          34.47717531262051
        ],
        [
          -119.60638740225276,
          34.47708522403105
        ],
        [
          -119.60616983059323,
          34.47708986678587
        ],
        [
          -119.60616702755375,
          34.476999778179334
        ],
        [
          -119.60594945607781,
          34.47700442053184
        ],
        [
          -119.60594665328414,
          34.47691433190823
        ],
        [
          -119.6057290819918,
          34.476918973858425
        ],
        [
          -119.60572627944393,
          34.476828885217735
        ],
        [
          -119.60550870833517,
          34.47683352676561
        ],
        [
          -119.60551151064966,
          34.476923615421846
        ],
        [
          -119.6052939392578,
          34.47692825659851
        ],
        [
          -119.60529674135138,
          34.47701834526875
        ],
        [
          -119.60486159795161,
          34.47702762649286
        ],
        [
          -119.60486439959091,
          34.47711771519268
        ],
        [
          -119.60464682758304,
          34.47712235524013
        ],
        [
          -119.6046496290014,
          34.477212443953974
        ],
        [
          -119.60388812576538,
          34.477228681128615
        ],
        [
          -119.60386572130072,
          34.476507970940006
        ],
        [
          -119.60375693600784,
          34.47651029008746
        ],
        [
          -119.60375133524936,
          34.47633011250948
        ],
        [
          -119.60386012030887,
          34.476327793377564
        ],
        [
          -119.60384051722903,
          34.47569717186083
        ],
        [
          -119.60373173298626,
          34.47569949093837
        ],
        [
          -119.6037289327127,
          34.47560940213638
        ],
        [
          -119.60362014857415,
          34.47561172110946
        ],
        [
          -119.60361454829763,
          34.47543154348534
        ],
        [
          -119.60350576438002,
          34.475433862346186
        ],
        [
          -119.60350296437707,
          34.475343773524074
        ],
        [
          -119.60339418056368,
          34.47534609228048
        ],
        [
          -119.60339138068984,
          34.47525600344906
        ],
        [
          -119.60328259698069,
          34.47525832210102
        ],
        [
          -119.60327979723596,
          34.4751682332603
        ],
        [
          -119.60317101363108,
          34.475170551807786
        ],
        [
          -119.60316821401543,
          34.47508046295777
        ],
        [
          -119.60295064700166,
          34.47508509974718
        ],
        [
          -119.60294784763181,
          34.4749950108801
        ],
        [
          -119.60175122945114,
          34.47502050622343
        ],
        [
          -119.60174843137709,
          34.47493041726943
        ],
        [
          -119.60153086450698,
          34.47493505151396
        ],
        [
          -119.60152806667868,
          34.47484496254289
        ],
        [
          -119.60131049999224,
          34.47484959638516
        ],
        [
          -119.6013077024097,
          34.47475950739705
        ],
        [
          -119.60087256935444,
          34.47476877389033
        ],
        [
          -119.60086977225099,
          34.47467868486964
        ],
        [
          -119.60076098907281,
          34.47468100124349
        ],
        [
          -119.60075259818696,
          34.474410734148975
        ],
        [
          -119.60064381534634,
          34.47441305040285
        ],
        [
          -119.60062983136828,
          34.473962605175956
        ],
        [
          -119.60052104909859,
          34.47396492129437
        ],
        [
          -119.60051545582759,
          34.47378474317737
        ],
        [
          -119.60062423786395,
          34.473782427074475
        ],
        [
          -119.60061305100429,
          34.473422070853175
        ],
        [
          -119.60050426943461,
          34.47342438692503
        ],
        [
          -119.6004818972445,
          34.47270367434694
        ],
        [
          -119.60037311659566,
          34.47270599026005
        ],
        [
          -119.60035913496361,
          34.47225554481029
        ],
        [
          -119.60046791502917,
          34.47225322893597
        ],
        [
          -119.60046511862336,
          34.47216313984918
        ],
        [
          -119.60057389855984,
          34.47216082388594
        ],
        [
          -119.60056830555212,
          34.47198064572328
        ],
        [
          -119.60067708524288,
          34.47197832967888
        ],
        [
          -119.60066589890984,
          34.47161797336627
        ],
        [
          -119.60077467812158,
          34.471615657256244
        ],
        [
          -119.60076069490134,
          34.47116521186983
        ],
        [
          -119.6008694735174,
          34.47116289570193
        ],
        [
          -119.6008415068416,
          34.47026200489202
        ],
        [
          -119.60105906170361,
          34.470257372421386
        ],
        [
          -119.60105626487102,
          34.47016728334756
        ],
        [
          -119.60127381945006,
          34.47016265050576
        ],
        [
          -119.6012710223966,
          34.47007256144587
        ],
        [
          -119.60137979955084,
          34.47007024488774
        ],
        [
          -119.60137700239316,
          34.469980155834044
        ],
        [
          -119.60148577941831,
          34.46997783918701
        ],
        [
          -119.60146340167083,
          34.469257126764774
        ],
        [
          -119.60135462557878,
          34.469259443349735
        ],
        [
          -119.60135182853286,
          34.46916935428231
        ],
        [
          -119.60124305254502,
          34.46917167076284
        ],
        [
          -119.60123745872372,
          34.46899149260787
        ],
        [
          -119.60112868295671,
          34.468993808976215
        ],
        [
          -119.60112588618132,
          34.46890371988869
        ],
        [
          -119.60101711051854,
          34.46890603615262
        ],
        [
          -119.6010143138722,
          34.46881594705578
        ],
        [
          -119.60090553831364,
          34.46881826321528
        ],
        [
          -119.60089994529147,
          34.468638085001544
        ],
        [
          -119.60079116995377,
          34.468640401048866
        ],
        [
          -119.60078837357793,
          34.46855031193192
        ],
        [
          -119.60067959834444,
          34.468552627874814
        ],
        [
          -119.60067680209767,
          34.468462538748604
        ],
        [
          -119.6005680269684,
          34.46846485458709
        ],
        [
          -119.60056243474534,
          34.46828467631453
        ],
        [
          -119.60045365983693,
          34.46828699204083
        ],
        [
          -119.60045086386067,
          34.46819690289456
        ],
        [
          -119.60023331423987,
          34.46820153404164
        ],
        [
          -119.60022772279108,
          34.4680213557134
        ],
        [
          -119.60033649737443,
          34.468019040203686
        ],
        [
          -119.600333701552,
          34.46792895104501
        ],
        [
          -119.6004424760063,
          34.4679266354464
        ],
        [
          -119.60043968007966,
          34.46783654629397
        ],
        [
          -119.60054845440493,
          34.46783423060646
        ],
        [
          -119.60054565837406,
          34.46774414146025
        ],
        [
          -119.60065443257028,
          34.467741825683845
        ],
        [
          -119.60064884031259,
          34.46756164740235
        ],
        [
          -119.6007576142631,
          34.46755933154479
        ],
        [
          -119.60075481803624,
          34.46746924240952
        ],
        [
          -119.60086359185776,
          34.467466926463075
        ],
        [
          -119.60085799920802,
          34.467286748203435
        ],
        [
          -119.60107554634725,
          34.4672821160516
        ],
        [
          -119.60106995328066,
          34.46710193781687
        ],
        [
          -119.60117872659839,
          34.46709962161148
        ],
        [
          -119.6011759299671,
          34.4670095324996
        ],
        [
          -119.60128470315581,
          34.46700721620531
        ],
        [
          -119.60128190642031,
          34.46691712709966
        ],
        [
          -119.60139067947995,
          34.46691481071648
        ],
        [
          -119.60138788264024,
          34.46682472161704
        ],
        [
          -119.60160542848908,
          34.46682008857624
        ],
        [
          -119.60160822556205,
          34.46691017766015
        ],
        [
          -119.60193454459203,
          34.46690322735072
        ],
        [
          -119.6019373420273,
          34.46699331640982
        ],
        [
          -119.60237243435994,
          34.466984047946355
        ],
        [
          -119.6023752322741,
          34.46707413697287
        ],
        [
          -119.60248400544283,
          34.46707181960759
        ],
        [
          -119.60248120741204,
          34.46698173058885
        ],
        [
          -119.6028075264938,
          34.46697477793638
        ],
        [
          -119.60281032487448,
          34.46706486693183
        ],
        [
          -119.60335419034543,
          34.467053277205785
        ],
        [
          -119.60335698932167,
          34.46714336616089
        ],
        [
          -119.60357453565629,
          34.467138729578345
        ],
        [
          -119.60357173644684,
          34.467048640638765
        ],
        [
          -119.60368050947892,
          34.46704632221027
        ],
        [
          -119.60368330880499,
          34.46713641114209
        ],
        [
          -119.60433594743613,
          34.46712249849474
        ],
        [
          -119.60433314741029,
          34.467032409609544
        ],
        [
          -119.60444192035537,
          34.467030090504444
        ],
        [
          -119.60443632010774,
          34.46684991274505
        ],
        [
          -119.60454509280713,
          34.46684759355883
        ],
        [
          -119.60454229258535,
          34.466757504684594
        ],
        [
          -119.60465106515568,
          34.466755185409504
        ],
        [
          -119.60464826482969,
          34.46666509654151
        ],
        [
          -119.60475703727099,
          34.46666277717754
        ],
        [
          -119.6047542368408,
          34.466572688315786
        ],
        [
          -119.60486300915304,
          34.46657036886294
        ],
        [
          -119.60486020861869,
          34.46648028000742
        ],
        [
          -119.60496898080186,
          34.46647796046568
        ],
        [
          -119.60496618016332,
          34.46638787161641
        ],
        [
          -119.60507495221741,
          34.466385551985795
        ],
        [
          -119.60507215147467,
          34.466295463142764
        ],
        [
          -119.60518092339977,
          34.46629314342326
        ],
        [
          -119.60517812255286,
          34.46620305458646
        ],
        [
          -119.60539566613245,
          34.466198414873034
        ],
        [
          -119.60539286506473,
          34.4661083260503
        ],
        [
          -119.60550163671925,
          34.46610600605639
        ],
        [
          -119.60549883554737,
          34.46601591723985
        ],
        [
          -119.60560760707283,
          34.46601359715706
        ],
        [
          -119.60560480579674,
          34.465923508346776
        ],
        [
          -119.60658374791676,
          34.46590262332222
        ],
        [
          -119.60658094560357,
          34.46581253458036
        ],
        [
          -119.60679848792684,
          34.46580789241617
        ],
        [
          -119.60679568539285,
          34.46571780368834
        ],
        [
          -119.60733954040023,
          34.465706196625376
        ],
        [
          -119.60733673729561,
          34.46561610793492
        ],
        [
          -119.60831567447532,
          34.46559520920263
        ],
        [
          -119.6083128703336,
          34.465505120580644
        ],
        [
          -119.60885672330357,
          34.46549350682997
        ],
        [
          -119.60885391859128,
          34.465403418245366
        ],
        [
          -119.60918022987401,
          34.46539644885851
        ],
        [
          -119.60917742482431,
          34.465306360295735
        ],
        [
          -119.60939496538398,
          34.46530171357016
        ],
        [
          -119.60939216011353,
          34.46521162502142
        ],
        [
          -119.60982724061694,
          34.465202330441635
        ],
        [
          -119.60983004635386,
          34.46529241895924
        ],
        [
          -119.61026512712448,
          34.46528312280193
        ],
        [
          -119.61026232092111,
          34.46519303431547
        ],
        [
          -119.61037109096601,
          34.46519071004231
        ],
        [
          -119.61037389728597,
          34.46528079852098
        ],
        [
          -119.61080897780742,
          34.46527150043071
        ],
        [
          -119.6108117846063,
          34.465361588876696
        ],
        [
          -119.61102932502546,
          34.4653569392361
        ],
        [
          -119.61102651799335,
          34.46526685080569
        ],
        [
          -119.61211421817539,
          34.46524359688169
        ],
        [
          -119.61211140998967,
          34.46515350852765
        ],
        [
          -119.61276402880084,
          34.46513955158092
        ],
        [
          -119.61276683768627,
          34.4652296398882
        ],
        [
          -119.61309314727335,
          34.46522266008672
        ],
        [
          -119.61309033803812,
          34.465132571802826
        ],
        [
          -119.61330787746726,
          34.465127918134165
        ],
        [
          -119.61330506801129,
          34.46503782986434
        ],
        [
          -119.61395768529972,
          34.46502386658569
        ],
        [
          -119.6139548751566,
          34.46493377836111
        ],
        [
          -119.61417241391972,
          34.46492912317732
        ],
        [
          -119.6141667932044,
          34.464748946754725
        ],
        [
          -119.61438433145122,
          34.464744291215546
        ],
        [
          -119.61438152087906,
          34.464654203017574
        ],
        [
          -119.61459905884274,
          34.4646495471074
        ],
        [
          -119.61459624804985,
          34.464559458923496
        ],
        [
          -119.61470501689635,
          34.46455713083123
        ],
        [
          -119.61470220599932,
          34.46446704265358
        ],
        [
          -119.61481097471679,
          34.46446471447249
        ],
        [
          -119.61480816371564,
          34.464374626301115
        ],
        [
          -119.61491693230397,
          34.46437229803117
        ],
        [
          -119.61491131010591,
          34.464192121699426
        ],
        [
          -119.61502007844858,
          34.464189793348446
        ],
        [
          -119.61498353386209,
          34.463018647144175
        ],
        [
          -119.61509230067648,
          34.46301631879797
        ],
        [
          -119.6150866783864,
          34.46283614245147
        ],
        [
          -119.61519544495512,
          34.46283381402423
        ],
        [
          -119.61518982248177,
          34.462653637687204
        ],
        [
          -119.61529858880482,
          34.462651309178916
        ],
        [
          -119.61529577747027,
          34.46256122101592
        ],
        [
          -119.61540454366423,
          34.4625588924188
        ],
        [
          -119.6153989207994,
          34.46237871610381
        ],
        [
          -119.61550768674769,
          34.46237638742565
        ],
        [
          -119.61549925219427,
          34.46210612296508
        ],
        [
          -119.61560801778029,
          34.4621037942137
        ],
        [
          -119.61560520617087,
          34.462013706064916
        ],
        [
          -119.61571397162784,
          34.4620113772247
        ],
        [
          -119.61570834821322,
          34.46183120093818
        ],
        [
          -119.61581711342453,
          34.461828872016945
        ],
        [
          -119.61579461933265,
          34.46110816687187
        ],
        [
          -119.61568585505407,
          34.461110495730686
        ],
        [
          -119.61567742032534,
          34.46084023125261
        ],
        [
          -119.61556865638399,
          34.46084255999139
        ],
        [
          -119.61556022211734,
          34.460572295476105
        ],
        [
          -119.61545145851328,
          34.46057462409485
        ],
        [
          -119.61544021346548,
          34.460214271355184
        ],
        [
          -119.61533145031525,
          34.46021659984609
        ],
        [
          -119.61532020593344,
          34.45985624705076
        ],
        [
          -119.61521144323704,
          34.459858575413826
        ],
        [
          -119.61519457773818,
          34.45931804612802
        ],
        [
          -119.61508581572876,
          34.45932037434765
        ],
        [
          -119.61507176207242,
          34.45886993319503
        ],
        [
          -119.61496300063341,
          34.45887226127905
        ],
        [
          -119.61494894787185,
          34.458421820049125
        ],
        [
          -119.615057708728,
          34.45841949200412
        ],
        [
          -119.61505208747757,
          34.45823931551704
        ],
        [
          -119.6151608480881,
          34.458236987391004
        ],
        [
          -119.61513274141895,
          34.457336104941774
        ],
        [
          -119.61524150085135,
          34.45733377679713
        ],
        [
          -119.61523587943414,
          34.457153600304494
        ],
        [
          -119.6153446386209,
          34.45715127207883
        ],
        [
          -119.61533620623896,
          34.456881007351825
        ],
        [
          -119.61544496506359,
          34.45687867905294
        ],
        [
          -119.61543653244428,
          34.45660841433553
        ],
        [
          -119.61554529090672,
          34.45660608596344
        ],
        [
          -119.61553966898978,
          34.456425909493134
        ],
        [
          -119.61564842720664,
          34.456423581040035
        ],
        [
          -119.61562312814911,
          34.45561278691807
        ],
        [
          -119.61573188530447,
          34.45561045843858
        ],
        [
          -119.61572345216027,
          34.455340193727075
        ],
        [
          -119.61583220895353,
          34.455337865174364
        ],
        [
          -119.61582939781387,
          34.455247776941945
        ],
        [
          -119.61572064113717,
          34.45525010548685
        ],
        [
          -119.61570377526056,
          34.454709576013315
        ],
        [
          -119.61559501927067,
          34.4547119044148
        ],
        [
          -119.61559220845149,
          34.45462181615603
        ],
        [
          -119.6154834525657,
          34.4546241444531
        ],
        [
          -119.61548064187551,
          34.45453405618502
        ],
        [
          -119.61537188609378,
          34.454536384377676
        ],
        [
          -119.61536907553263,
          34.45444629610027
        ],
        [
          -119.61526031985497,
          34.45444862418851
        ],
        [
          -119.61525750942285,
          34.45435853590177
        ],
        [
          -119.61514875384925,
          34.454360863885604
        ],
        [
          -119.61513189221775,
          34.453820334086224
        ],
        [
          -119.61524064709204,
          34.453818006149184
        ],
        [
          -119.61523783674726,
          34.45372791785173
        ],
        [
          -119.61567285565353,
          34.45371860516874
        ],
        [
          -119.61567004485505,
          34.45362851690095
        ],
        [
          -119.61610506309555,
          34.4536192027035
        ],
        [
          -119.61610225184336,
          34.45352911446537
        ],
        [
          -119.61631976065564,
          34.45352445680262
        ],
        [
          -119.61631694918286,
          34.453434368578584
        ],
        [
          -119.61740449132988,
          34.45341107454663
        ],
        [
          -119.61740167870418,
          34.45332098639912
        ],
        [
          -119.61751043273367,
          34.45331865647242
        ],
        [
          -119.6175076200039,
          34.45322856833118
        ],
        [
          -119.61761637390438,
          34.45322623831567
        ],
        [
          -119.61761356107054,
          34.45313615018071
        ],
        [
          -119.617722314842,
          34.45313382007641
        ],
        [
          -119.61771950190413,
          34.45304373194773
        ],
        [
          -119.61782825554656,
          34.45304140175464
        ],
        [
          -119.61782544250464,
          34.45295131363223
        ],
        [
          -119.61793419601803,
          34.452948983350346
        ],
        [
          -119.61793138287207,
          34.452858895234215
        ],
        [
          -119.61804013625638,
          34.45285656486354
        ],
        [
          -119.61803732300639,
          34.45276647675368
        ],
        [
          -119.61814607626172,
          34.4527641462942
        ],
        [
          -119.61814326290768,
          34.45267405819064
        ],
        [
          -119.61825201603396,
          34.45267172764237
        ],
        [
          -119.61824638913025,
          34.45249155144623
        ],
        [
          -119.618355142011,
          34.45248922081698
        ],
        [
          -119.61834670139947,
          34.45221895653473
        ],
        [
          -119.61845545391814,
          34.45221662583231
        ],
        [
          -119.61845264028942,
          34.45212653774298
        ],
        [
          -119.61856139267904,
          34.45212420695177
        ],
        [
          -119.61854732414012,
          34.45167376652122
        ],
        [
          -119.61865607593461,
          34.45167143567246
        ],
        [
          -119.61864763461158,
          34.451401171419135
        ],
        [
          -119.61875638604398,
          34.45139884049722
        ],
        [
          -119.61874794448377,
          34.45112857625356
        ],
        [
          -119.6188566955541,
          34.45112624525847
        ],
        [
          -119.61885106767672,
          34.45094606910399
        ],
        [
          -119.6189598185015,
          34.45094373802794
        ],
        [
          -119.618954190441,
          34.450763561882965
        ],
        [
          -119.61906294102025,
          34.450761230725945
        ],
        [
          -119.6216729511729,
          34.45070525397927
        ],
        [
          -119.62167013424832,
          34.450615166099865
        ],
        [
          -119.62177888439854,
          34.450612832535825
        ],
        [
          -119.62177606736991,
          34.4505227446627
        ],
        [
          -119.62188481739113,
          34.45052041100989
        ],
        [
          -119.6218820002585,
          34.450430323143046
        ],
        [
          -119.62253449942396,
          34.450416319244674
        ],
        [
          -119.62255140660218,
          34.4509568461411
        ],
        [
          -119.62266015711843,
          34.45095451177303
        ],
        [
          -119.62266579317763,
          34.45113468737727
        ],
        [
          -119.62277454391443,
          34.45113235289696
        ],
        [
          -119.6227773620793,
          34.45122244068895
        ],
        [
          -119.62288611292016,
          34.451220106104245
        ],
        [
          -119.62288893121408,
          34.45131019388689
        ],
        [
          -119.62299768215891,
          34.45130785919773
        ],
        [
          -119.62300050058187,
          34.45139794697104
        ],
        [
          -119.62310925163072,
          34.45139561217747
        ],
        [
          -119.62311207018273,
          34.45148569994141
        ],
        [
          -119.62322082133561,
          34.45148336504342
        ],
        [
          -119.62322927741629,
          34.45175362830251
        ],
        [
          -119.62333802890622,
          34.451751293284474
        ],
        [
          -119.62334648544912,
          34.452021556506324
        ],
        [
          -119.62345523727613,
          34.45201922136821
        ]
      ]
    ]
  }
}
